CCSDS_OMM_VERS = 2.0
CREATION_DATE  = 
ORIGINATOR     = 

OBJECT_NAME    = SL-16 R/B
OBJECT_ID      = 1998-043G
CENTER_NAME    = EARTH
REF_FRAME      = TEME
TIME_SYSTEM    = UTC
MEAN_ELEMENT_THEORY = SGP/SGP4

EPOCH          = 2026-01-26T13:31:04.423296
MEAN_MOTION    = 14.26038768
ECCENTRICITY   = .0010588
INCLINATION    = 98.8187
RA_OF_ASC_NODE = 339.6467
ARG_OF_PERICENTER = 132.3551
MEAN_ANOMALY   = 227.8527

EPHEMERIS_TYPE = 0
CLASSIFICATION_TYPE = U
NORAD_CAT_ID   = 25400
ELEMENT_SET_NO = 999
REV_AT_EPOCH   = 43298
BSTAR          = .83453E-4
MEAN_MOTION_DOT = .154E-5
MEAN_MOTION_DDOT = 0

CCSDS_OMM_VERS = 2.0
CREATION_DATE  = 
ORIGINATOR     = 

OBJECT_NAME    = SL-16 R/B
OBJECT_ID      = 1998-045B
CENTER_NAME    = EARTH
REF_FRAME      = TEME
TIME_SYSTEM    = UTC
MEAN_ELEMENT_THEORY = SGP/SGP4

EPOCH          = 2026-01-26T16:30:17.401824
MEAN_MOTION    = 14.16187073
ECCENTRICITY   = .0005095
INCLINATION    = 71.0105
RA_OF_ASC_NODE = 269.9042
ARG_OF_PERICENTER = 89.4212
MEAN_ANOMALY   = 270.7495

EPHEMERIS_TYPE = 0
CLASSIFICATION_TYPE = U
NORAD_CAT_ID   = 25407
ELEMENT_SET_NO = 999
REV_AT_EPOCH   = 42115
BSTAR          = .52565E-4
MEAN_MOTION_DOT = .56E-6
MEAN_MOTION_DDOT = 0

CCSDS_OMM_VERS = 2.0
CREATION_DATE  = 
ORIGINATOR     = 

OBJECT_NAME    = ISS (ZARYA)
OBJECT_ID      = 1998-067A
CENTER_NAME    = EARTH
REF_FRAME      = TEME
TIME_SYSTEM    = UTC
MEAN_ELEMENT_THEORY = SGP/SGP4

EPOCH          = 2026-01-26T13:29:46.904352
MEAN_MOTION    = 15.48203655
ECCENTRICITY   = .0011114
INCLINATION    = 51.6321
RA_OF_ASC_NODE = 280.6014
ARG_OF_PERICENTER = 32.6655
MEAN_ANOMALY   = 327.5019

EPHEMERIS_TYPE = 0
CLASSIFICATION_TYPE = U
NORAD_CAT_ID   = 25544
ELEMENT_SET_NO = 999
REV_AT_EPOCH   = 54980
BSTAR          = .24389E-3
MEAN_MOTION_DOT = .12665E-3
MEAN_MOTION_DDOT = 0

CCSDS_OMM_VERS = 2.0
CREATION_DATE  = 
ORIGINATOR     = 

OBJECT_NAME    = CZ-4B R/B
OBJECT_ID      = 1999-025C
CENTER_NAME    = EARTH
REF_FRAME      = TEME
TIME_SYSTEM    = UTC
MEAN_ELEMENT_THEORY = SGP/SGP4

EPOCH          = 2026-01-26T20:27:01.257696
MEAN_MOTION    = 14.18256295
ECCENTRICITY   = .0038178
INCLINATION    = 98.6707
RA_OF_ASC_NODE = 72.1093
ARG_OF_PERICENTER = 104.9714
MEAN_ANOMALY   = 68.3545

EPHEMERIS_TYPE = 0
CLASSIFICATION_TYPE = U
NORAD_CAT_ID   = 25732
ELEMENT_SET_NO = 999
REV_AT_EPOCH   = 38223
BSTAR          = .70775E-4
MEAN_MOTION_DOT = .104E-5
MEAN_MOTION_DDOT = 0

CCSDS_OMM_VERS = 2.0
CREATION_DATE  = 
ORIGINATOR     = 

OBJECT_NAME    = OKEAN-O
OBJECT_ID      = 1999-039A
CENTER_NAME    = EARTH
REF_FRAME      = TEME
TIME_SYSTEM    = UTC
MEAN_ELEMENT_THEORY = SGP/SGP4

EPOCH          = 2026-01-26T14:35:20.063040
MEAN_MOTION    = 14.80259804
ECCENTRICITY   = .0001898
INCLINATION    = 97.9532
RA_OF_ASC_NODE = 86.9080
ARG_OF_PERICENTER = 97.4497
MEAN_ANOMALY   = 262.6930

EPHEMERIS_TYPE = 0
CLASSIFICATION_TYPE = U
NORAD_CAT_ID   = 25860
ELEMENT_SET_NO = 999
REV_AT_EPOCH   = 42816
BSTAR          = .17123E-3
MEAN_MOTION_DOT = .1251E-4
MEAN_MOTION_DDOT = 0

CCSDS_OMM_VERS = 2.0
CREATION_DATE  = 
ORIGINATOR     = 

OBJECT_NAME    = SL-16 R/B
OBJECT_ID      = 1999-039B
CENTER_NAME    = EARTH
REF_FRAME      = TEME
TIME_SYSTEM    = UTC
MEAN_ELEMENT_THEORY = SGP/SGP4

EPOCH          = 2026-01-26T15:03:42.507648
MEAN_MOTION    = 14.81666866
ECCENTRICITY   = .0015618
INCLINATION    = 98.0056
RA_OF_ASC_NODE = 85.7675
ARG_OF_PERICENTER = 38.3655
MEAN_ANOMALY   = 321.8665

EPHEMERIS_TYPE = 0
CLASSIFICATION_TYPE = U
NORAD_CAT_ID   = 25861
ELEMENT_SET_NO = 999
REV_AT_EPOCH   = 43063
BSTAR          = .13664E-3
MEAN_MOTION_DOT = .1023E-4
MEAN_MOTION_DDOT = 0

CCSDS_OMM_VERS = 2.0
CREATION_DATE  = 
ORIGINATOR     = 

OBJECT_NAME    = DELTA 2 R/B
OBJECT_ID      = 1999-041E
CENTER_NAME    = EARTH
REF_FRAME      = TEME
TIME_SYSTEM    = UTC
MEAN_ELEMENT_THEORY = SGP/SGP4

EPOCH          = 2026-01-26T14:27:39.914784
MEAN_MOTION    = 14.11639419
ECCENTRICITY   = .0502829
INCLINATION    = 51.7629
RA_OF_ASC_NODE = 109.3412
ARG_OF_PERICENTER = 224.0697
MEAN_ANOMALY   = 131.9112

EPHEMERIS_TYPE = 0
CLASSIFICATION_TYPE = U
NORAD_CAT_ID   = 25876
ELEMENT_SET_NO = 999
REV_AT_EPOCH   = 35708
BSTAR          = .68452E-3
MEAN_MOTION_DOT = .4026E-4
MEAN_MOTION_DDOT = 0

CCSDS_OMM_VERS = 2.0
CREATION_DATE  = 
ORIGINATOR     = 

OBJECT_NAME    = HELIOS 1B
OBJECT_ID      = 1999-064A
CENTER_NAME    = EARTH
REF_FRAME      = TEME
TIME_SYSTEM    = UTC
MEAN_ELEMENT_THEORY = SGP/SGP4

EPOCH          = 2026-01-26T16:11:14.653824
MEAN_MOTION    = 14.87509892
ECCENTRICITY   = .0001381
INCLINATION    = 98.1733
RA_OF_ASC_NODE = 287.6754
ARG_OF_PERICENTER = 131.3699
MEAN_ANOMALY   = 228.7635

EPHEMERIS_TYPE = 0
CLASSIFICATION_TYPE = U
NORAD_CAT_ID   = 25977
ELEMENT_SET_NO = 999
REV_AT_EPOCH   = 67901
BSTAR          = .37539E-3
MEAN_MOTION_DOT = .3346E-4
MEAN_MOTION_DDOT = 0

CCSDS_OMM_VERS = 2.0
CREATION_DATE  = 
ORIGINATOR     = 

OBJECT_NAME    = TERRA
OBJECT_ID      = 1999-068A
CENTER_NAME    = EARTH
REF_FRAME      = TEME
TIME_SYSTEM    = UTC
MEAN_ELEMENT_THEORY = SGP/SGP4

EPOCH          = 2026-01-26T19:13:42.159360
MEAN_MOTION    = 14.60965050
ECCENTRICITY   = .0001522
INCLINATION    = 97.9681
RA_OF_ASC_NODE = 81.8176
ARG_OF_PERICENTER = 347.9121
MEAN_ANOMALY   = 75.1370

EPHEMERIS_TYPE = 0
CLASSIFICATION_TYPE = U
NORAD_CAT_ID   = 25994
ELEMENT_SET_NO = 999
REV_AT_EPOCH   = 38896
BSTAR          = .16789E-3
MEAN_MOTION_DOT = .778E-5
MEAN_MOTION_DDOT = 0

CCSDS_OMM_VERS = 2.0
CREATION_DATE  = 
ORIGINATOR     = 

OBJECT_NAME    = SL-16 R/B
OBJECT_ID      = 2000-006B
CENTER_NAME    = EARTH
REF_FRAME      = TEME
TIME_SYSTEM    = UTC
MEAN_ELEMENT_THEORY = SGP/SGP4

EPOCH          = 2026-01-26T20:00:13.128192
MEAN_MOTION    = 14.15815181
ECCENTRICITY   = .0018603
INCLINATION    = 71.0011
RA_OF_ASC_NODE = 185.8430
ARG_OF_PERICENTER = 247.8678
MEAN_ANOMALY   = 112.0470

EPHEMERIS_TYPE = 0
CLASSIFICATION_TYPE = U
NORAD_CAT_ID   = 26070
ELEMENT_SET_NO = 999
REV_AT_EPOCH   = 34263
BSTAR          = .1895E-3
MEAN_MOTION_DOT = .325E-5
MEAN_MOTION_DDOT = 0

CCSDS_OMM_VERS = 2.0
CREATION_DATE  = 
ORIGINATOR     = 

OBJECT_NAME    = TITAN 4B R/B
OBJECT_ID      = 2000-047B
CENTER_NAME    = EARTH
REF_FRAME      = TEME
TIME_SYSTEM    = UTC
MEAN_ELEMENT_THEORY = SGP/SGP4

EPOCH          = 2026-01-26T19:35:28.374432
MEAN_MOTION    = 15.09190963
ECCENTRICITY   = .0036792
INCLINATION    = 67.9889
RA_OF_ASC_NODE = 158.2221
ARG_OF_PERICENTER = 87.7660
MEAN_ANOMALY   = 272.7701

EPHEMERIS_TYPE = 0
CLASSIFICATION_TYPE = U
NORAD_CAT_ID   = 26474
ELEMENT_SET_NO = 999
REV_AT_EPOCH   = 38659
BSTAR          = .3956E-3
MEAN_MOTION_DOT = .6272E-4
MEAN_MOTION_DDOT = 0

CCSDS_OMM_VERS = 2.0
CREATION_DATE  = 
ORIGINATOR     = 

OBJECT_NAME    = ENVISAT
OBJECT_ID      = 2002-009A
CENTER_NAME    = EARTH
REF_FRAME      = TEME
TIME_SYSTEM    = UTC
MEAN_ELEMENT_THEORY = SGP/SGP4

EPOCH          = 2026-01-26T21:13:58.503360
MEAN_MOTION    = 14.39019894
ECCENTRICITY   = .0001229
INCLINATION    = 98.3661
RA_OF_ASC_NODE = 341.4961
ARG_OF_PERICENTER = 91.6489
MEAN_ANOMALY   = 286.2082

EPHEMERIS_TYPE = 0
CLASSIFICATION_TYPE = U
NORAD_CAT_ID   = 27386
ELEMENT_SET_NO = 999
REV_AT_EPOCH   = 25316
BSTAR          = .95701E-4
MEAN_MOTION_DOT = .253E-5
MEAN_MOTION_DDOT = 0

