SL-16 R/B               
1 25400U 98043G   26026.56324564  .00000154  00000+0  83453-4 0  9992
2 25400  98.8187 339.6467 0010588 132.3551 227.8527 14.26038768432988
SL-16 R/B               
1 25407U 98045B   26026.68770141  .00000056  00000+0  52565-4 0  9991
2 25407  71.0105 269.9042 0005095  89.4212 270.7495 14.16187073421156
ISS (ZARYA)             
1 25544U 98067A   26026.56234843  .00012665  00000+0  24389-3 0  9999
2 25544  51.6321 280.6014 0011114  32.6655 327.5019 15.48203655549808
CZ-4B R/B               
1 25732U 99025C   26026.85209789  .00000104  00000+0  70775-4 0  9992
2 25732  98.6707  72.1093 0038178 104.9714  68.3545 14.18256295382235
OKEAN-O                 
1 25860U 99039A   26026.60787110  .00001251  00000+0  17123-3 0  9992
2 25860  97.9532  86.9080 0001898  97.4497 262.6930 14.80259804428165
SL-16 R/B               
1 25861U 99039B   26026.62757532  .00001023  00000+0  13664-3 0  9993
2 25861  98.0056  85.7675 0015618  38.3655 321.8665 14.81666866430630
DELTA 2 R/B             
1 25876U 99041E   26026.60254531  .00004026  00000+0  68452-3 0  9992
2 25876  51.7629 109.3412 0502829 224.0697 131.9112 14.11639419357086
HELIOS 1B               
1 25977U 99064A   26026.67447516  .00003346  00000+0  37539-3 0  9999
2 25977  98.1733 287.6754 0001381 131.3699 228.7635 14.87509892679016
TERRA                   
1 25994U 99068A   26026.80118240  .00000778  00000+0  16789-3 0  9996
2 25994  97.9681  81.8176 0001522 347.9121  75.1370 14.60965050388962
SL-16 R/B               
1 26070U 00006B   26026.83348528  .00000325  00000+0  18950-3 0  9993
2 26070  71.0011 185.8430 0018603 247.8678 112.0470 14.15815181342634
TITAN 4B R/B            
1 26474U 00047B   26026.81630063  .00006272  00000+0  39560-3 0  9999
2 26474  67.9889 158.2221 0036792  87.7660 272.7701 15.09190963386594
ENVISAT                 
1 27386U 02009A   26026.88470490  .00000253  00000+0  95701-4 0  9998
2 27386  98.3661 341.4961 0001229  91.6489 286.2082 14.39019894253163
